{
  "features": [
    {
      "type": "Feature",
      "geometry": {
        "type": "Point",
        "coordinates": [
          167.167,
          -77.528
        ]
      },
      "properties": {
        "name": "erebus",
        "display_name": "Erebus",
        "lat_deg": -77.528,
        "lon_deg": 167.167,
        "alt_masl": 3794,
        "2005": 16,
        "2006": 15,
        "2007": 15,
        "2008": 20,
        "2009": 17,
        "2010": 9,
        "2011": 2,
        "2012": 8,
        "2013": 4,
        "2014": 4,
        "2015": 3,
        "2016": 12,
        "2017": 8,
        "2018": 9,
        "2019": 14,
        "2020": 16,
        "2021": 20,
        "2022": 20,
        "2023": 24,
        "2024": 22,
        "2025": 28
      }
    },
    {
      "type": "Feature",
      "geometry": {
        "type": "Point",
        "coordinates": [
          -26.33,
          -58.42
        ]
      },
      "properties": {
        "name": "montagu",
        "display_name": "Montagu",
        "lat_deg": -58.42,
        "lon_deg": -26.33,
        "alt_masl": 1370,
        "2005": 200,
        "2006": 161,
        "2007": 34,
        "2008": 22,
        "2009": 10,
        "2010": 16,
        "2011": 0,
        "2012": 0,
        "2013": 23,
        "2014": 16,
        "2015": 28,
        "2016": 2,
        "2017": 12,
        "2018": 14,
        "2019": 17,
        "2020": 13,
        "2021": 9,
        "2022": 13,
        "2023": 6,
        "2024": 12,
        "2025": 3
      }
    },
    {
      "type": "Feature",
      "geometry": {
        "type": "Point",
        "coordinates": [
          -26.488,
          -57.8
        ]
      },
      "properties": {
        "name": "michael",
        "display_name": "Michael",
        "lat_deg": -57.8,
        "lon_deg": -26.488,
        "alt_masl": 990,
        "2005": 167,
        "2006": 134,
        "2007": 114,
        "2008": 86,
        "2009": 74,
        "2010": 50,
        "2011": 74,
        "2012": 8,
        "2013": 81,
        "2014": 65,
        "2015": 61,
        "2016": 13,
        "2017": 80,
        "2018": 59,
        "2019": 68,
        "2020": 58,
        "2021": 45,
        "2022": 54,
        "2023": 36,
        "2024": 43,
        "2025": 64
      }
    },
    {
      "type": "Feature",
      "geometry": {
        "type": "Point",
        "coordinates": [
          -71.93,
          -39.42
        ]
      },
      "properties": {
        "name": "villarrica",
        "display_name": "Villarrica",
        "lat_deg": -39.42,
        "lon_deg": -71.93,
        "alt_masl": 2847,
        "2005": 113,
        "2006": 105,
        "2007": 95,
        "2008": 50,
        "2009": 32,
        "2010": 156,
        "2011": 156,
        "2012": 147,
        "2013": 49,
        "2014": 25,
        "2015": 159,
        "2016": 106,
        "2017": 259,
        "2018": 93,
        "2019": 193,
        "2020": 30,
        "2021": 53,
        "2022": 71,
        "2023": 137,
        "2024": 86,
        "2025": 4
      }
    },
    {
      "type": "Feature",
      "geometry": {
        "type": "Point",
        "coordinates": [
          -71.73,
          -38.697
        ]
      },
      "properties": {
        "name": "llaima",
        "display_name": "Llaima",
        "lat_deg": -38.697,
        "lon_deg": -71.73,
        "alt_masl": 3030,
        "2005": null,
        "2006": null,
        "2007": null,
        "2008": null,
        "2009": null,
        "2010": null,
        "2011": null,
        "2012": null,
        "2013": null,
        "2014": null,
        "2015": 53,
        "2016": null,
        "2017": 32,
        "2018": null,
        "2019": null,
        "2020": null,
        "2021": null,
        "2022": null,
        "2023": null,
        "2024": null,
        "2025": null
      }
    },
    {
      "type": "Feature",
      "geometry": {
        "type": "Point",
        "coordinates": [
          -71.16,
          -37.856
        ]
      },
      "properties": {
        "name": "copahue",
        "display_name": "Copahue",
        "lat_deg": -37.856,
        "lon_deg": -71.16,
        "alt_masl": 2800,
        "2005": 22,
        "2006": 19,
        "2007": 38,
        "2008": 29,
        "2009": 32,
        "2010": 9,
        "2011": 73,
        "2012": 241,
        "2013": 451,
        "2014": 270,
        "2015": 264,
        "2016": 260,
        "2017": 185,
        "2018": 239,
        "2019": 174,
        "2020": 86,
        "2021": 57,
        "2022": 24,
        "2023": 15,
        "2024": 29,
        "2025": 10
      }
    },
    {
      "type": "Feature",
      "geometry": {
        "type": "Point",
        "coordinates": [
          177.181,
          -37.52
        ]
      },
      "properties": {
        "name": "white_island",
        "display_name": "White Island",
        "lat_deg": -37.52,
        "lon_deg": 177.181,
        "alt_masl": 321,
        "2005": 36,
        "2006": 81,
        "2007": 55,
        "2008": 25,
        "2009": 59,
        "2010": 62,
        "2011": 68,
        "2012": 103,
        "2013": 96,
        "2014": 70,
        "2015": 72,
        "2016": 135,
        "2017": 50,
        "2018": 132,
        "2019": 213,
        "2020": 153,
        "2021": 98,
        "2022": 97,
        "2023": 44,
        "2024": 98,
        "2025": 149
      }
    },
    {
      "type": "Feature",
      "geometry": {
        "type": "Point",
        "coordinates": [
          -71.379,
          -36.868
        ]
      },
      "properties": {
        "name": "nevados_de_chillan",
        "display_name": "Nevados de Chillan",
        "lat_deg": -36.868,
        "lon_deg": -71.379,
        "alt_masl": 3170,
        "2005": null,
        "2006": null,
        "2007": null,
        "2008": null,
        "2009": null,
        "2010": null,
        "2011": null,
        "2012": null,
        "2013": null,
        "2014": null,
        "2015": null,
        "2016": null,
        "2017": null,
        "2018": 106,
        "2019": 120,
        "2020": null,
        "2021": null,
        "2022": null,
        "2023": null,
        "2024": null,
        "2025": null
      }
    },
    {
      "type": "Feature",
      "geometry": {
        "type": "Point",
        "coordinates": [
          -70.573,
          -35.271
        ]
      },
      "properties": {
        "name": "peteroa",
        "display_name": "Peteroa",
        "lat_deg": -35.271,
        "lon_deg": -70.573,
        "alt_masl": 4084,
        "2005": 0,
        "2006": 0,
        "2007": 0,
        "2008": 0,
        "2009": 0,
        "2010": 41,
        "2011": 30,
        "2012": 1,
        "2013": 1,
        "2014": 0,
        "2015": 2,
        "2016": 0,
        "2017": 0,
        "2018": 60,
        "2019": 68,
        "2020": 2,
        "2021": 0,
        "2022": 0,
        "2023": 0,
        "2024": 0,
        "2025": 10
      }
    },
    {
      "type": "Feature",
      "geometry": {
        "type": "Point",
        "coordinates": [
          -68.5,
          -25.17
        ]
      },
      "properties": {
        "name": "lastarria",
        "display_name": "Lastarria",
        "lat_deg": -25.17,
        "lon_deg": -68.5,
        "alt_masl": 5697,
        "2005": 90,
        "2006": 81,
        "2007": 65,
        "2008": 73,
        "2009": 86,
        "2010": 52,
        "2011": 53,
        "2012": 79,
        "2013": 67,
        "2014": 68,
        "2015": 81,
        "2016": 46,
        "2017": 35,
        "2018": 61,
        "2019": 58,
        "2020": 67,
        "2021": 62,
        "2022": 82,
        "2023": 64,
        "2024": 50,
        "2025": 44
      }
    },
    {
      "type": "Feature",
      "geometry": {
        "type": "Point",
        "coordinates": [
          -67.68,
          -23.368
        ]
      },
      "properties": {
        "name": "lascar",
        "display_name": "Lascar",
        "lat_deg": -23.368,
        "lon_deg": -67.68,
        "alt_masl": 5900,
        "2005": 17,
        "2006": 66,
        "2007": 16,
        "2008": 28,
        "2009": 39,
        "2010": 8,
        "2011": 40,
        "2012": 10,
        "2013": 69,
        "2014": 80,
        "2015": 73,
        "2016": 32,
        "2017": 0,
        "2018": 104,
        "2019": 90,
        "2020": 5,
        "2021": 6,
        "2022": 52,
        "2023": 7,
        "2024": 4,
        "2025": 53
      }
    },
    {
      "type": "Feature",
      "geometry": {
        "type": "Point",
        "coordinates": [
          55.714,
          -21.254
        ]
      },
      "properties": {
        "name": "piton_de_la_fournaise",
        "display_name": "Piton de la Fournaise",
        "lat_deg": -21.254,
        "lon_deg": 55.714,
        "alt_masl": 2400,
        "2005": null,
        "2006": null,
        "2007": null,
        "2008": 25,
        "2009": null,
        "2010": 4,
        "2011": 17,
        "2012": null,
        "2013": null,
        "2014": null,
        "2015": 174,
        "2016": 42,
        "2017": 53,
        "2018": 38,
        "2019": 6,
        "2020": 8,
        "2021": 15,
        "2022": 42,
        "2023": 20,
        "2024": null,
        "2025": null
      }
    },
    {
      "type": "Feature",
      "geometry": {
        "type": "Point",
        "coordinates": [
          55.713,
          -21.231
        ]
      },
      "properties": {
        "name": "reunuin",
        "display_name": "Reunuin",
        "lat_deg": -21.231,
        "lon_deg": 55.713,
        "alt_masl": 2460,
        "2005": 60,
        "2006": 143,
        "2007": 34,
        "2008": 30,
        "2009": 8,
        "2010": 38,
        "2011": 11,
        "2012": 5,
        "2013": 4,
        "2014": 1,
        "2015": 203,
        "2016": 24,
        "2017": 77,
        "2018": 124,
        "2019": 88,
        "2020": 57,
        "2021": 45,
        "2022": 56,
        "2023": 37,
        "2024": 1,
        "2025": 0
      }
    },
    {
      "type": "Feature",
      "geometry": {
        "type": "Point",
        "coordinates": [
          -175.07,
          -19.75
        ]
      },
      "properties": {
        "name": "tofua",
        "display_name": "Tofua",
        "lat_deg": -19.75,
        "lon_deg": -175.07,
        "alt_masl": 515,
        "2005": 66,
        "2006": 76,
        "2007": 125,
        "2008": 145,
        "2009": 102,
        "2010": 126,
        "2011": 109,
        "2012": 85,
        "2013": 68,
        "2014": 58,
        "2015": 62,
        "2016": 49,
        "2017": 80,
        "2018": 28,
        "2019": 32,
        "2020": 46,
        "2021": 206,
        "2022": 93,
        "2023": 74,
        "2024": 133,
        "2025": 97
      }
    },
    {
      "type": "Feature",
      "geometry": {
        "type": "Point",
        "coordinates": [
          169.442,
          -19.53
        ]
      },
      "properties": {
        "name": "yasur",
        "display_name": "Yasur",
        "lat_deg": -19.53,
        "lon_deg": 169.442,
        "alt_masl": 280,
        "2005": 242,
        "2006": 310,
        "2007": 279,
        "2008": 514,
        "2009": 324,
        "2010": 632,
        "2011": 553,
        "2012": 553,
        "2013": 722,
        "2014": 581,
        "2015": 707,
        "2016": 1045,
        "2017": 795,
        "2018": 634,
        "2019": 781,
        "2020": 1283,
        "2021": 1271,
        "2022": 986,
        "2023": 1021,
        "2024": 592,
        "2025": 816
      }
    },
    {
      "type": "Feature",
      "geometry": {
        "type": "Point",
        "coordinates": [
          -68.83,
          -19.15
        ]
      },
      "properties": {
        "name": "isluga",
        "display_name": "Isluga",
        "lat_deg": -19.15,
        "lon_deg": -68.83,
        "alt_masl": 5550,
        "2005": 17,
        "2006": 0,
        "2007": 0,
        "2008": 2,
        "2009": 5,
        "2010": 0,
        "2011": 0,
        "2012": 38,
        "2013": 79,
        "2014": 80,
        "2015": 268,
        "2016": 90,
        "2017": 7,
        "2018": 130,
        "2019": 113,
        "2020": 0,
        "2021": 0,
        "2022": 0,
        "2023": 14,
        "2024": 55,
        "2025": 35
      }
    },
    {
      "type": "Feature",
      "geometry": {
        "type": "Point",
        "coordinates": [
          -70.9,
          -16.34
        ]
      },
      "properties": {
        "name": "ubinas",
        "display_name": "Ubinas",
        "lat_deg": -16.34,
        "lon_deg": -70.9,
        "alt_masl": 5400,
        "2005": 0,
        "2006": 245,
        "2007": 127,
        "2008": 54,
        "2009": 38,
        "2010": 9,
        "2011": 9,
        "2012": 2,
        "2013": 8,
        "2014": 172,
        "2015": 122,
        "2016": 68,
        "2017": 78,
        "2018": 85,
        "2019": 310,
        "2020": 25,
        "2021": 6,
        "2022": 4,
        "2023": 42,
        "2024": 55,
        "2025": 1
      }
    },
    {
      "type": "Feature",
      "geometry": {
        "type": "Point",
        "coordinates": [
          168.12,
          -16.25
        ]
      },
      "properties": {
        "name": "ambrym",
        "display_name": "Ambrym",
        "lat_deg": -16.25,
        "lon_deg": 168.12,
        "alt_masl": 1334,
        "2005": 1729,
        "2006": 945,
        "2007": 2155,
        "2008": 2119,
        "2009": 2573,
        "2010": 2995,
        "2011": 3949,
        "2012": 2901,
        "2013": 2607,
        "2014": 2080,
        "2015": 2471,
        "2016": 2695,
        "2017": 2825,
        "2018": 2574,
        "2019": 54,
        "2020": 0,
        "2021": 1,
        "2022": 11,
        "2023": 21,
        "2024": 37,
        "2025": 32
      }
    },
    {
      "type": "Feature",
      "geometry": {
        "type": "Point",
        "coordinates": [
          -71.86,
          -15.795
        ]
      },
      "properties": {
        "name": "sabancaya",
        "display_name": "Sabancaya",
        "lat_deg": -15.795,
        "lon_deg": -71.86,
        "alt_masl": 5967,
        "2005": 0,
        "2006": 0,
        "2007": 0,
        "2008": 2,
        "2009": 0,
        "2010": 5,
        "2011": 4,
        "2012": 12,
        "2013": 32,
        "2014": 91,
        "2015": 176,
        "2016": 255,
        "2017": 378,
        "2018": 571,
        "2019": 423,
        "2020": 199,
        "2021": 175,
        "2022": 203,
        "2023": 161,
        "2024": 105,
        "2025": 10
      }
    },
    {
      "type": "Feature",
      "geometry": {
        "type": "Point",
        "coordinates": [
          167.83,
          -15.4
        ]
      },
      "properties": {
        "name": "aoba",
        "display_name": "Aoba",
        "lat_deg": -15.4,
        "lon_deg": 167.83,
        "alt_masl": 1395,
        "2005": 593,
        "2006": 1061,
        "2007": 575,
        "2008": 481,
        "2009": 941,
        "2010": 1564,
        "2011": 1650,
        "2012": 1774,
        "2013": 1567,
        "2014": 1137,
        "2015": 1189,
        "2016": 1234,
        "2017": 1744,
        "2018": 1196,
        "2019": 26,
        "2020": 58,
        "2021": 158,
        "2022": 319,
        "2023": 528,
        "2024": 594,
        "2025": 692
      }
    },
    {
      "type": "Feature",
      "geometry": {
        "type": "Point",
        "coordinates": [
          167.5,
          -14.27
        ]
      },
      "properties": {
        "name": "gaua",
        "display_name": "Gaua",
        "lat_deg": -14.27,
        "lon_deg": 167.5,
        "alt_masl": 797,
        "2005": 58,
        "2006": 26,
        "2007": 32,
        "2008": 51,
        "2009": 140,
        "2010": 419,
        "2011": 261,
        "2012": 401,
        "2013": 202,
        "2014": 74,
        "2015": 27,
        "2016": 134,
        "2017": 41,
        "2018": 85,
        "2019": 63,
        "2020": 162,
        "2021": 168,
        "2022": 183,
        "2023": 151,
        "2024": 148,
        "2025": 172
      }
    },
    {
      "type": "Feature",
      "geometry": {
        "type": "Point",
        "coordinates": [
          165.8,
          -10.38
        ]
      },
      "properties": {
        "name": "tinakula",
        "display_name": "Tinakula",
        "lat_deg": -10.38,
        "lon_deg": 165.8,
        "alt_masl": 851,
        "2005": 0,
        "2006": 333,
        "2007": 114,
        "2008": 50,
        "2009": 77,
        "2010": 194,
        "2011": 111,
        "2012": 56,
        "2013": 4,
        "2014": 12,
        "2015": 1,
        "2016": 0,
        "2017": 34,
        "2018": 54,
        "2019": 52,
        "2020": 63,
        "2021": 53,
        "2022": 62,
        "2023": 215,
        "2024": 118,
        "2025": 34
      }
    },
    {
      "type": "Feature",
      "geometry": {
        "type": "Point",
        "coordinates": [
          121.18,
          -8.82
        ]
      },
      "properties": {
        "name": "ebulobo",
        "display_name": "Ebulobo",
        "lat_deg": -8.82,
        "lon_deg": 121.18,
        "alt_masl": 2124,
        "2005": 1,
        "2006": 15,
        "2007": 0,
        "2008": 21,
        "2009": 38,
        "2010": 69,
        "2011": 14,
        "2012": 12,
        "2013": 19,
        "2014": 9,
        "2015": 20,
        "2016": 20,
        "2017": 14,
        "2018": 18,
        "2019": 18,
        "2020": 15,
        "2021": 5,
        "2022": 13,
        "2023": 11,
        "2024": 28,
        "2025": 0
      }
    },
    {
      "type": "Feature",
      "geometry": {
        "type": "Point",
        "coordinates": [
          124.127,
          -8.509
        ]
      },
      "properties": {
        "name": "sirung",
        "display_name": "Sirung",
        "lat_deg": -8.509,
        "lon_deg": 124.127,
        "alt_masl": 862,
        "2005": 115,
        "2006": 99,
        "2007": 184,
        "2008": 143,
        "2009": 98,
        "2010": 120,
        "2011": 91,
        "2012": 275,
        "2013": 44,
        "2014": 108,
        "2015": 143,
        "2016": 106,
        "2017": 139,
        "2018": 155,
        "2019": 201,
        "2020": 126,
        "2021": 119,
        "2022": 124,
        "2023": 89,
        "2024": 218,
        "2025": 181
      }
    },
    {
      "type": "Feature",
      "geometry": {
        "type": "Point",
        "coordinates": [
          116.47,
          -8.42
        ]
      },
      "properties": {
        "name": "rinjani",
        "display_name": "Rinjani",
        "lat_deg": -8.42,
        "lon_deg": 116.47,
        "alt_masl": 3726,
        "2005": 0,
        "2006": 0,
        "2007": 0,
        "2008": 0,
        "2009": 100,
        "2010": 24,
        "2011": 0,
        "2012": 0,
        "2013": 0,
        "2014": 0,
        "2015": 104,
        "2016": 3,
        "2017": 0,
        "2018": 9,
        "2019": 0,
        "2020": 5,
        "2021": 0,
        "2022": 0,
        "2023": 1,
        "2024": 0,
        "2025": 0
      }
    },
    {
      "type": "Feature",
      "geometry": {
        "type": "Point",
        "coordinates": [
          115.508,
          -8.343
        ]
      },
      "properties": {
        "name": "agung",
        "display_name": "Agung",
        "lat_deg": -8.343,
        "lon_deg": 115.508,
        "alt_masl": 2800,
        "2005": 0,
        "2006": 0,
        "2007": 0,
        "2008": 0,
        "2009": 4,
        "2010": 16,
        "2011": 0,
        "2012": 0,
        "2013": 0,
        "2014": 0,
        "2015": 59,
        "2016": 0,
        "2017": 29,
        "2018": 51,
        "2019": 5,
        "2020": 1,
        "2021": 6,
        "2022": 1,
        "2023": 0,
        "2024": 0,
        "2025": 0
      }
    },
    {
      "type": "Feature",
      "geometry": {
        "type": "Point",
        "coordinates": [
          121.708,
          -8.32
        ]
      },
      "properties": {
        "name": "paluweh",
        "display_name": "Paluweh",
        "lat_deg": -8.32,
        "lon_deg": 121.708,
        "alt_masl": 875,
        "2005": 13,
        "2006": 0,
        "2007": 0,
        "2008": 0,
        "2009": 10,
        "2010": 32,
        "2011": 0,
        "2012": 15,
        "2013": 46,
        "2014": 21,
        "2015": 9,
        "2016": 12,
        "2017": 13,
        "2018": 8,
        "2019": 3,
        "2020": 3,
        "2021": 9,
        "2022": 8,
        "2023": 27,
        "2024": 23,
        "2025": 67
      }
    },
    {
      "type": "Feature",
      "geometry": {
        "type": "Point",
        "coordinates": [
          123.505,
          -8.272
        ]
      },
      "properties": {
        "name": "lewotolo",
        "display_name": "Lewotolo",
        "lat_deg": -8.272,
        "lon_deg": 123.505,
        "alt_masl": 1339,
        "2005": 244,
        "2006": 214,
        "2007": 279,
        "2008": 294,
        "2009": 216,
        "2010": 203,
        "2011": 194,
        "2012": 362,
        "2013": 159,
        "2014": 174,
        "2015": 154,
        "2016": 209,
        "2017": 125,
        "2018": 65,
        "2019": 57,
        "2020": 70,
        "2021": 107,
        "2022": 97,
        "2023": 120,
        "2024": 256,
        "2025": 203
      }
    },
    {
      "type": "Feature",
      "geometry": {
        "type": "Point",
        "coordinates": [
          119.066,
          -8.209
        ]
      },
      "properties": {
        "name": "sangeang_api",
        "display_name": "Sangeang Api",
        "lat_deg": -8.209,
        "lon_deg": 119.066,
        "alt_masl": 1949,
        "2005": 1,
        "2006": 0,
        "2007": 0,
        "2008": 0,
        "2009": 0,
        "2010": 0,
        "2011": 2,
        "2012": 0,
        "2013": 6,
        "2014": 137,
        "2015": 61,
        "2016": 2,
        "2017": 30,
        "2018": 20,
        "2019": 21,
        "2020": 8,
        "2021": 1,
        "2022": 0,
        "2023": 0,
        "2024": 4,
        "2025": 4
      }
    },
    {
      "type": "Feature",
      "geometry": {
        "type": "Point",
        "coordinates": [
          114.242,
          -8.058
        ]
      },
      "properties": {
        "name": "ijen",
        "display_name": "Ijen",
        "lat_deg": -8.058,
        "lon_deg": 114.242,
        "alt_masl": 2799,
        "2005": 460,
        "2006": 277,
        "2007": 296,
        "2008": 264,
        "2009": 136,
        "2010": 193,
        "2011": 146,
        "2012": 136,
        "2013": 180,
        "2014": 148,
        "2015": 314,
        "2016": 153,
        "2017": 117,
        "2018": 70,
        "2019": 58,
        "2020": 91,
        "2021": 239,
        "2022": 268,
        "2023": 141,
        "2024": 93,
        "2025": 208
      }
    },
    {
      "type": "Feature",
      "geometry": {
        "type": "Point",
        "coordinates": [
          112.95,
          -7.942
        ]
      },
      "properties": {
        "name": "tengger_caldera",
        "display_name": "Tengger Caldera",
        "lat_deg": -7.942,
        "lon_deg": 112.95,
        "alt_masl": 2258,
        "2005": 221,
        "2006": 260,
        "2007": 330,
        "2008": 424,
        "2009": 293,
        "2010": 437,
        "2011": 390,
        "2012": 109,
        "2013": 105,
        "2014": 270,
        "2015": 357,
        "2016": 689,
        "2017": 227,
        "2018": 221,
        "2019": 104,
        "2020": 182,
        "2021": 338,
        "2022": 450,
        "2023": 392,
        "2024": 307,
        "2025": 370
      }
    },
    {
      "type": "Feature",
      "geometry": {
        "type": "Point",
        "coordinates": [
          112.575,
          -7.733
        ]
      },
      "properties": {
        "name": "arjuno-welirang",
        "display_name": "Arjuno-Welirang",
        "lat_deg": -7.733,
        "lon_deg": 112.575,
        "alt_masl": 3339,
        "2005": 79,
        "2006": 118,
        "2007": 125,
        "2008": 187,
        "2009": 121,
        "2010": 167,
        "2011": 156,
        "2012": 51,
        "2013": 35,
        "2014": 122,
        "2015": 196,
        "2016": 225,
        "2017": 78,
        "2018": 88,
        "2019": 55,
        "2020": 96,
        "2021": 115,
        "2022": 136,
        "2023": 141,
        "2024": 97,
        "2025": 146
      }
    },
    {
      "type": "Feature",
      "geometry": {
        "type": "Point",
        "coordinates": [
          110.44,
          -7.556
        ]
      },
      "properties": {
        "name": "merapi",
        "display_name": "Merapi",
        "lat_deg": -7.556,
        "lon_deg": 110.44,
        "alt_masl": 2968,
        "2005": 1,
        "2006": 68,
        "2007": 4,
        "2008": 0,
        "2009": 0,
        "2010": 67,
        "2011": 2,
        "2012": 11,
        "2013": 6,
        "2014": 1,
        "2015": 0,
        "2016": 10,
        "2017": 13,
        "2018": 1,
        "2019": 0,
        "2020": 9,
        "2021": 39,
        "2022": 11,
        "2023": 14,
        "2024": 22,
        "2025": 19
      }
    },
    {
      "type": "Feature",
      "geometry": {
        "type": "Point",
        "coordinates": [
          109.208,
          -7.242
        ]
      },
      "properties": {
        "name": "slamet",
        "display_name": "Slamet",
        "lat_deg": -7.242,
        "lon_deg": 109.208,
        "alt_masl": 3329,
        "2005": 20,
        "2006": 109,
        "2007": 112,
        "2008": 29,
        "2009": 56,
        "2010": 160,
        "2011": 69,
        "2012": 21,
        "2013": 31,
        "2014": 79,
        "2015": 101,
        "2016": 6,
        "2017": 28,
        "2018": 60,
        "2019": 41,
        "2020": 48,
        "2021": 13,
        "2022": 31,
        "2023": 41,
        "2024": 29,
        "2025": 48
      }
    },
    {
      "type": "Feature",
      "geometry": {
        "type": "Point",
        "coordinates": [
          155.195,
          -6.14
        ]
      },
      "properties": {
        "name": "bagana",
        "display_name": "Bagana",
        "lat_deg": -6.14,
        "lon_deg": 155.195,
        "alt_masl": 1750,
        "2005": 1594,
        "2006": 1026,
        "2007": 970,
        "2008": 940,
        "2009": 928,
        "2010": 939,
        "2011": 796,
        "2012": 1265,
        "2013": 948,
        "2014": 747,
        "2015": 894,
        "2016": 688,
        "2017": 743,
        "2018": 477,
        "2019": 192,
        "2020": 176,
        "2021": 656,
        "2022": 505,
        "2023": 246,
        "2024": 522,
        "2025": 713
      }
    },
    {
      "type": "Feature",
      "geometry": {
        "type": "Point",
        "coordinates": [
          105.424,
          -6.106
        ]
      },
      "properties": {
        "name": "krakatau",
        "display_name": "Krakatau",
        "lat_deg": -6.106,
        "lon_deg": 105.424,
        "alt_masl": 813,
        "2005": 48,
        "2006": 44,
        "2007": 59,
        "2008": 111,
        "2009": 125,
        "2010": 93,
        "2011": 209,
        "2012": 234,
        "2013": 104,
        "2014": 58,
        "2015": 72,
        "2016": 74,
        "2017": 95,
        "2018": 173,
        "2019": 108,
        "2020": 121,
        "2021": 361,
        "2022": 436,
        "2023": 286,
        "2024": 109,
        "2025": 56
      }
    },
    {
      "type": "Feature",
      "geometry": {
        "type": "Point",
        "coordinates": [
          148.42,
          -5.525
        ]
      },
      "properties": {
        "name": "langila",
        "display_name": "Langila",
        "lat_deg": -5.525,
        "lon_deg": 148.42,
        "alt_masl": 991,
        "2005": 566,
        "2006": 326,
        "2007": 383,
        "2008": 58,
        "2009": 157,
        "2010": 218,
        "2011": 187,
        "2012": 360,
        "2013": 282,
        "2014": 132,
        "2015": 92,
        "2016": 342,
        "2017": 677,
        "2018": 182,
        "2019": 70,
        "2020": 212,
        "2021": 220,
        "2022": 182,
        "2023": 188,
        "2024": 248,
        "2025": 264
      }
    },
    {
      "type": "Feature",
      "geometry": {
        "type": "Point",
        "coordinates": [
          151.33,
          -5.05
        ]
      },
      "properties": {
        "name": "ulawun",
        "display_name": "Ulawun",
        "lat_deg": -5.05,
        "lon_deg": 151.33,
        "alt_masl": 2300,
        "2005": 150,
        "2006": 260,
        "2007": 86,
        "2008": 65,
        "2009": 156,
        "2010": 702,
        "2011": 369,
        "2012": 143,
        "2013": 267,
        "2014": 151,
        "2015": 167,
        "2016": 244,
        "2017": 307,
        "2018": 147,
        "2019": 65,
        "2020": 27,
        "2021": 171,
        "2022": 253,
        "2023": 152,
        "2024": 113,
        "2025": 64
      }
    },
    {
      "type": "Feature",
      "geometry": {
        "type": "Point",
        "coordinates": [
          152.21,
          -4.24
        ]
      },
      "properties": {
        "name": "tavurvur",
        "display_name": "Tavurvur",
        "lat_deg": -4.24,
        "lon_deg": 152.21,
        "alt_masl": 200,
        "2005": 212,
        "2006": 348,
        "2007": 1229,
        "2008": 1937,
        "2009": 1381,
        "2010": 31,
        "2011": 105,
        "2012": 0,
        "2013": 146,
        "2014": 0,
        "2015": 0,
        "2016": 0,
        "2017": 0,
        "2018": 0,
        "2019": 9,
        "2020": 12,
        "2021": 0,
        "2022": 0,
        "2023": 8,
        "2024": 0,
        "2025": 0
      }
    },
    {
      "type": "Feature",
      "geometry": {
        "type": "Point",
        "coordinates": [
          145.037,
          -4.08
        ]
      },
      "properties": {
        "name": "manam",
        "display_name": "Manam",
        "lat_deg": -4.08,
        "lon_deg": 145.037,
        "alt_masl": 1730,
        "2005": 1286,
        "2006": 535,
        "2007": 752,
        "2008": 495,
        "2009": 364,
        "2010": 551,
        "2011": 533,
        "2012": 483,
        "2013": 439,
        "2014": 287,
        "2015": 578,
        "2016": 488,
        "2017": 472,
        "2018": 307,
        "2019": 1151,
        "2020": 553,
        "2021": 425,
        "2022": 476,
        "2023": 290,
        "2024": 316,
        "2025": 321
      }
    },
    {
      "type": "Feature",
      "geometry": {
        "type": "Point",
        "coordinates": [
          144.588,
          -3.608
        ]
      },
      "properties": {
        "name": "kadovar",
        "display_name": "Kadovar",
        "lat_deg": -3.608,
        "lon_deg": 144.588,
        "alt_masl": 370,
        "2005": 839,
        "2006": 334,
        "2007": 534,
        "2008": 356,
        "2009": 250,
        "2010": 364,
        "2011": 356,
        "2012": 267,
        "2013": 196,
        "2014": 165,
        "2015": 346,
        "2016": 309,
        "2017": 393,
        "2018": 294,
        "2019": 642,
        "2020": 468,
        "2021": 341,
        "2022": 358,
        "2023": 144,
        "2024": 213,
        "2025": 200
      }
    },
    {
      "type": "Feature",
      "geometry": {
        "type": "Point",
        "coordinates": [
          -78.341,
          -2.0
        ]
      },
      "properties": {
        "name": "sangay",
        "display_name": "Sangay",
        "lat_deg": -2.0,
        "lon_deg": -78.341,
        "alt_masl": 5286,
        "2005": 64,
        "2006": 81,
        "2007": 58,
        "2008": 53,
        "2009": 0,
        "2010": 1,
        "2011": 0,
        "2012": 27,
        "2013": 22,
        "2014": 53,
        "2015": 114,
        "2016": 13,
        "2017": 32,
        "2018": 7,
        "2019": 98,
        "2020": 231,
        "2021": 400,
        "2022": 375,
        "2023": 201,
        "2024": 77,
        "2025": 45
      }
    },
    {
      "type": "Feature",
      "geometry": {
        "type": "Point",
        "coordinates": [
          101.264,
          -1.697
        ]
      },
      "properties": {
        "name": "kerinci",
        "display_name": "Kerinci",
        "lat_deg": -1.697,
        "lon_deg": 101.264,
        "alt_masl": 3760,
        "2005": 152,
        "2006": 91,
        "2007": 135,
        "2008": 133,
        "2009": 160,
        "2010": 17,
        "2011": 126,
        "2012": 93,
        "2013": 92,
        "2014": 75,
        "2015": 107,
        "2016": 145,
        "2017": 120,
        "2018": 137,
        "2019": 73,
        "2020": 104,
        "2021": 97,
        "2022": 159,
        "2023": 36,
        "2024": 8,
        "2025": 23
      }
    },
    {
      "type": "Feature",
      "geometry": {
        "type": "Point",
        "coordinates": [
          29.25,
          -1.522
        ]
      },
      "properties": {
        "name": "nyiragongo",
        "display_name": "Nyiragongo",
        "lat_deg": -1.522,
        "lon_deg": 29.25,
        "alt_masl": 3470,
        "2005": 266,
        "2006": 160,
        "2007": 477,
        "2008": 109,
        "2009": 190,
        "2010": 279,
        "2011": 402,
        "2012": 583,
        "2013": 536,
        "2014": 286,
        "2015": 437,
        "2016": 12,
        "2017": null,
        "2018": null,
        "2019": null,
        "2020": null,
        "2021": null,
        "2022": null,
        "2023": null,
        "2024": null,
        "2025": null
      }
    },
    {
      "type": "Feature",
      "geometry": {
        "type": "Point",
        "coordinates": [
          -78.442,
          -1.467
        ]
      },
      "properties": {
        "name": "tungurahua",
        "display_name": "Tungurahua",
        "lat_deg": -1.467,
        "lon_deg": -78.442,
        "alt_masl": 5023,
        "2005": 224,
        "2006": 309,
        "2007": 405,
        "2008": 447,
        "2009": 391,
        "2010": 487,
        "2011": 178,
        "2012": 371,
        "2013": 302,
        "2014": 302,
        "2015": 253,
        "2016": 173,
        "2017": 362,
        "2018": 275,
        "2019": 8,
        "2020": 39,
        "2021": 68,
        "2022": 95,
        "2023": 74,
        "2024": 0,
        "2025": 2
      }
    },
    {
      "type": "Feature",
      "geometry": {
        "type": "Point",
        "coordinates": [
          29.2,
          -1.408
        ]
      },
      "properties": {
        "name": "nyamuragira",
        "display_name": "Nyamuragira",
        "lat_deg": -1.408,
        "lon_deg": 29.2,
        "alt_masl": 2950,
        "2005": 1469,
        "2006": 966,
        "2007": 979,
        "2008": 605,
        "2009": 605,
        "2010": 496,
        "2011": 573,
        "2012": 2921,
        "2013": 2334,
        "2014": 2232,
        "2015": 2361,
        "2016": 551,
        "2017": 367,
        "2018": 284,
        "2019": 294,
        "2020": 487,
        "2021": 147,
        "2022": 154,
        "2023": 98,
        "2024": 655,
        "2025": 3038
      }
    },
    {
      "type": "Feature",
      "geometry": {
        "type": "Point",
        "coordinates": [
          -91.17,
          -0.83
        ]
      },
      "properties": {
        "name": "sierra_negra",
        "display_name": "Sierra Negra",
        "lat_deg": -0.83,
        "lon_deg": -91.17,
        "alt_masl": 1124,
        "2005": 7,
        "2006": 6,
        "2007": 17,
        "2008": 18,
        "2009": 14,
        "2010": 9,
        "2011": 18,
        "2012": 3,
        "2013": 20,
        "2014": 14,
        "2015": 3,
        "2016": 22,
        "2017": 20,
        "2018": 136,
        "2019": 26,
        "2020": 16,
        "2021": 7,
        "2022": 39,
        "2023": 17,
        "2024": 47,
        "2025": 11
      }
    },
    {
      "type": "Feature",
      "geometry": {
        "type": "Point",
        "coordinates": [
          -78.437,
          -0.684
        ]
      },
      "properties": {
        "name": "cotopaxi",
        "display_name": "Cotopaxi",
        "lat_deg": -0.684,
        "lon_deg": -78.437,
        "alt_masl": 5800,
        "2005": null,
        "2006": null,
        "2007": null,
        "2008": null,
        "2009": null,
        "2010": null,
        "2011": null,
        "2012": null,
        "2013": null,
        "2014": null,
        "2015": 391,
        "2016": 99,
        "2017": 89,
        "2018": 68,
        "2019": 72,
        "2020": 11,
        "2021": 12,
        "2022": 20,
        "2023": 25,
        "2024": null,
        "2025": null
      }
    },
    {
      "type": "Feature",
      "geometry": {
        "type": "Point",
        "coordinates": [
          100.46,
          -0.39
        ]
      },
      "properties": {
        "name": "padang",
        "display_name": "Padang",
        "lat_deg": -0.39,
        "lon_deg": 100.46,
        "alt_masl": 2686,
        "2005": 26,
        "2006": 42,
        "2007": 18,
        "2008": 0,
        "2009": 2,
        "2010": 0,
        "2011": 31,
        "2012": 16,
        "2013": 0,
        "2014": 1,
        "2015": 3,
        "2016": 1,
        "2017": 14,
        "2018": 8,
        "2019": 3,
        "2020": 2,
        "2021": 0,
        "2022": 0,
        "2023": 30,
        "2024": 367,
        "2025": 115
      }
    },
    {
      "type": "Feature",
      "geometry": {
        "type": "Point",
        "coordinates": [
          -77.656,
          -0.077
        ]
      },
      "properties": {
        "name": "reventador",
        "display_name": "Reventador",
        "lat_deg": -0.077,
        "lon_deg": -77.656,
        "alt_masl": 3562,
        "2005": 317,
        "2006": 37,
        "2007": 50,
        "2008": 126,
        "2009": 213,
        "2010": 154,
        "2011": 5,
        "2012": 79,
        "2013": 124,
        "2014": 111,
        "2015": 55,
        "2016": 60,
        "2017": 70,
        "2018": 60,
        "2019": 61,
        "2020": 15,
        "2021": 79,
        "2022": 150,
        "2023": 49,
        "2024": 12,
        "2025": 66
      }
    },
    {
      "type": "Feature",
      "geometry": {
        "type": "Point",
        "coordinates": [
          -77.989,
          0.025
        ]
      },
      "properties": {
        "name": "cayambe",
        "display_name": "Cayambe",
        "lat_deg": 0.025,
        "lon_deg": -77.989,
        "alt_masl": 5790,
        "2005": null,
        "2006": null,
        "2007": null,
        "2008": null,
        "2009": null,
        "2010": null,
        "2011": null,
        "2012": null,
        "2013": null,
        "2014": null,
        "2015": null,
        "2016": null,
        "2017": null,
        "2018": null,
        "2019": 30,
        "2020": null,
        "2021": null,
        "2022": null,
        "2023": null,
        "2024": null,
        "2025": null
      }
    },
    {
      "type": "Feature",
      "geometry": {
        "type": "Point",
        "coordinates": [
          -77.391,
          1.201
        ]
      },
      "properties": {
        "name": "galeras",
        "display_name": "Galeras",
        "lat_deg": 1.201,
        "lon_deg": -77.391,
        "alt_masl": 4276,
        "2005": 112,
        "2006": 70,
        "2007": 89,
        "2008": 444,
        "2009": 184,
        "2010": 115,
        "2011": 130,
        "2012": 157,
        "2013": 119,
        "2014": 20,
        "2015": 38,
        "2016": 15,
        "2017": 16,
        "2018": 0,
        "2019": 1,
        "2020": 1,
        "2021": 0,
        "2022": 0,
        "2023": 0,
        "2024": 0,
        "2025": 0
      }
    },
    {
      "type": "Feature",
      "geometry": {
        "type": "Point",
        "coordinates": [
          124.792,
          1.358
        ]
      },
      "properties": {
        "name": "lokon-empung",
        "display_name": "Lokon-Empung",
        "lat_deg": 1.358,
        "lon_deg": 124.792,
        "alt_masl": 1580,
        "2005": 0,
        "2006": 5,
        "2007": 55,
        "2008": 153,
        "2009": 73,
        "2010": 38,
        "2011": 104,
        "2012": 145,
        "2013": 83,
        "2014": 13,
        "2015": 60,
        "2016": 52,
        "2017": 3,
        "2018": 11,
        "2019": 2,
        "2020": 0,
        "2021": 0,
        "2022": 8,
        "2023": 16,
        "2024": 0,
        "2025": 9
      }
    },
    {
      "type": "Feature",
      "geometry": {
        "type": "Point",
        "coordinates": [
          127.88,
          1.68
        ]
      },
      "properties": {
        "name": "dukono",
        "display_name": "Dukono",
        "lat_deg": 1.68,
        "lon_deg": 127.88,
        "alt_masl": 1170,
        "2005": 407,
        "2006": 414,
        "2007": 395,
        "2008": 654,
        "2009": 529,
        "2010": 771,
        "2011": 842,
        "2012": 365,
        "2013": 625,
        "2014": 629,
        "2015": 642,
        "2016": 1004,
        "2017": 886,
        "2018": 740,
        "2019": 746,
        "2020": 905,
        "2021": 1040,
        "2022": 832,
        "2023": 932,
        "2024": 751,
        "2025": 642
      }
    },
    {
      "type": "Feature",
      "geometry": {
        "type": "Point",
        "coordinates": [
          125.4,
          2.78
        ]
      },
      "properties": {
        "name": "karangetang",
        "display_name": "Karangetang",
        "lat_deg": 2.78,
        "lon_deg": 125.4,
        "alt_masl": 1780,
        "2005": 144,
        "2006": 127,
        "2007": 98,
        "2008": 94,
        "2009": 119,
        "2010": 46,
        "2011": 122,
        "2012": 96,
        "2013": 74,
        "2014": 83,
        "2015": 130,
        "2016": 130,
        "2017": 133,
        "2018": 140,
        "2019": 263,
        "2020": 104,
        "2021": 91,
        "2022": 182,
        "2023": 292,
        "2024": 88,
        "2025": 101
      }
    },
    {
      "type": "Feature",
      "geometry": {
        "type": "Point",
        "coordinates": [
          -76.03,
          2.93
        ]
      },
      "properties": {
        "name": "nevado_del_huila",
        "display_name": "Nevado del Huila",
        "lat_deg": 2.93,
        "lon_deg": -76.03,
        "alt_masl": 5364,
        "2005": 26,
        "2006": 0,
        "2007": 198,
        "2008": 625,
        "2009": 580,
        "2010": 680,
        "2011": 151,
        "2012": 46,
        "2013": 98,
        "2014": 52,
        "2015": 60,
        "2016": 27,
        "2017": 29,
        "2018": 30,
        "2019": 38,
        "2020": 27,
        "2021": 13,
        "2022": 18,
        "2023": 3,
        "2024": 22,
        "2025": 26
      }
    },
    {
      "type": "Feature",
      "geometry": {
        "type": "Point",
        "coordinates": [
          98.392,
          3.17
        ]
      },
      "properties": {
        "name": "sinabung",
        "display_name": "Sinabung",
        "lat_deg": 3.17,
        "lon_deg": 98.392,
        "alt_masl": 2460,
        "2005": 8,
        "2006": 0,
        "2007": 8,
        "2008": 7,
        "2009": 0,
        "2010": 55,
        "2011": 85,
        "2012": 60,
        "2013": 145,
        "2014": 841,
        "2015": 119,
        "2016": 103,
        "2017": 72,
        "2018": 122,
        "2019": 68,
        "2020": 127,
        "2021": 71,
        "2022": 62,
        "2023": 39,
        "2024": 24,
        "2025": 35
      }
    },
    {
      "type": "Feature",
      "geometry": {
        "type": "Point",
        "coordinates": [
          -75.322,
          4.895
        ]
      },
      "properties": {
        "name": "nevado_del_ruiz",
        "display_name": "Nevado del Ruiz",
        "lat_deg": 4.895,
        "lon_deg": -75.322,
        "alt_masl": 5321,
        "2005": 91,
        "2006": 44,
        "2007": 18,
        "2008": 0,
        "2009": 18,
        "2010": 29,
        "2011": 78,
        "2012": 337,
        "2013": 469,
        "2014": 165,
        "2015": 239,
        "2016": 269,
        "2017": 363,
        "2018": 296,
        "2019": 378,
        "2020": 414,
        "2021": 389,
        "2022": 404,
        "2023": 412,
        "2024": 368,
        "2025": 263
      }
    },
    {
      "type": "Feature",
      "geometry": {
        "type": "Point",
        "coordinates": [
          -83.767,
          10.025
        ]
      },
      "properties": {
        "name": "turrialba",
        "display_name": "Turrialba",
        "lat_deg": 10.025,
        "lon_deg": -83.767,
        "alt_masl": 3340,
        "2005": 11,
        "2006": 17,
        "2007": 90,
        "2008": 135,
        "2009": 139,
        "2010": 741,
        "2011": 697,
        "2012": 380,
        "2013": 326,
        "2014": 337,
        "2015": 420,
        "2016": 388,
        "2017": 342,
        "2018": 303,
        "2019": 119,
        "2020": 68,
        "2021": 71,
        "2022": 54,
        "2023": 54,
        "2024": 35,
        "2025": 42
      }
    },
    {
      "type": "Feature",
      "geometry": {
        "type": "Point",
        "coordinates": [
          123.132,
          10.412
        ]
      },
      "properties": {
        "name": "kanlaon",
        "display_name": "Kanlaon",
        "lat_deg": 10.412,
        "lon_deg": 123.132,
        "alt_masl": 2435,
        "2005": 268,
        "2006": 0,
        "2007": 0,
        "2008": 0,
        "2009": 10,
        "2010": 0,
        "2011": 0,
        "2012": 0,
        "2013": 1,
        "2014": 11,
        "2015": 5,
        "2016": 149,
        "2017": 34,
        "2018": 259,
        "2019": 17,
        "2020": 66,
        "2021": 157,
        "2022": 37,
        "2023": 103,
        "2024": 462,
        "2025": 469
      }
    },
    {
      "type": "Feature",
      "geometry": {
        "type": "Point",
        "coordinates": [
          -84.703,
          10.463
        ]
      },
      "properties": {
        "name": "arenal",
        "display_name": "Arenal",
        "lat_deg": 10.463,
        "lon_deg": -84.703,
        "alt_masl": 1670,
        "2005": 101,
        "2006": 69,
        "2007": 64,
        "2008": 94,
        "2009": 170,
        "2010": 207,
        "2011": 248,
        "2012": 109,
        "2013": 152,
        "2014": 137,
        "2015": 122,
        "2016": 103,
        "2017": 390,
        "2018": 139,
        "2019": 110,
        "2020": 72,
        "2021": 63,
        "2022": 38,
        "2023": 83,
        "2024": 143,
        "2025": 311
      }
    },
    {
      "type": "Feature",
      "geometry": {
        "type": "Point",
        "coordinates": [
          -85.622,
          11.539
        ]
      },
      "properties": {
        "name": "concepcion",
        "display_name": "Concepcion",
        "lat_deg": 11.539,
        "lon_deg": -85.622,
        "alt_masl": 1600,
        "2005": null,
        "2006": null,
        "2007": null,
        "2008": null,
        "2009": null,
        "2010": 66,
        "2011": 141,
        "2012": 98,
        "2013": null,
        "2014": null,
        "2015": null,
        "2016": null,
        "2017": null,
        "2018": null,
        "2019": null,
        "2020": null,
        "2021": null,
        "2022": null,
        "2023": null,
        "2024": null,
        "2025": null
      }
    },
    {
      "type": "Feature",
      "geometry": {
        "type": "Point",
        "coordinates": [
          -86.161,
          11.984
        ]
      },
      "properties": {
        "name": "masaya",
        "display_name": "Masaya",
        "lat_deg": 11.984,
        "lon_deg": -86.161,
        "alt_masl": 635,
        "2005": 242,
        "2006": 332,
        "2007": 338,
        "2008": 357,
        "2009": 139,
        "2010": 138,
        "2011": 68,
        "2012": 158,
        "2013": 176,
        "2014": 145,
        "2015": 201,
        "2016": 438,
        "2017": 393,
        "2018": 278,
        "2019": 236,
        "2020": 265,
        "2021": 312,
        "2022": 291,
        "2023": 341,
        "2024": 110,
        "2025": 113
      }
    },
    {
      "type": "Feature",
      "geometry": {
        "type": "Point",
        "coordinates": [
          93.858,
          12.278
        ]
      },
      "properties": {
        "name": "barren_island",
        "display_name": "Barren Island",
        "lat_deg": 12.278,
        "lon_deg": 93.858,
        "alt_masl": 230,
        "2005": 242,
        "2006": 318,
        "2007": 26,
        "2008": 43,
        "2009": 150,
        "2010": 19,
        "2011": 25,
        "2012": 1,
        "2013": 2,
        "2014": 2,
        "2015": 33,
        "2016": 4,
        "2017": 0,
        "2018": 7,
        "2019": 8,
        "2020": 1,
        "2021": 3,
        "2022": 0,
        "2023": 10,
        "2024": 10,
        "2025": 52
      }
    },
    {
      "type": "Feature",
      "geometry": {
        "type": "Point",
        "coordinates": [
          -86.54,
          12.424
        ]
      },
      "properties": {
        "name": "momotombo",
        "display_name": "Momotombo",
        "lat_deg": 12.424,
        "lon_deg": -86.54,
        "alt_masl": 1270,
        "2005": 57,
        "2006": 81,
        "2007": 104,
        "2008": 109,
        "2009": 111,
        "2010": 78,
        "2011": 81,
        "2012": 113,
        "2013": 84,
        "2014": 65,
        "2015": 90,
        "2016": 83,
        "2017": 103,
        "2018": 83,
        "2019": 57,
        "2020": 85,
        "2021": 103,
        "2022": 113,
        "2023": 100,
        "2024": 64,
        "2025": 47
      }
    },
    {
      "type": "Feature",
      "geometry": {
        "type": "Point",
        "coordinates": [
          -86.842,
          12.605
        ]
      },
      "properties": {
        "name": "telica",
        "display_name": "Telica",
        "lat_deg": 12.605,
        "lon_deg": -86.842,
        "alt_masl": 1061,
        "2005": null,
        "2006": null,
        "2007": null,
        "2008": null,
        "2009": 3,
        "2010": 2,
        "2011": 4,
        "2012": null,
        "2013": 8,
        "2014": null,
        "2015": 2,
        "2016": 24,
        "2017": 143,
        "2018": 27,
        "2019": null,
        "2020": null,
        "2021": null,
        "2022": null,
        "2023": null,
        "2024": null,
        "2025": null
      }
    },
    {
      "type": "Feature",
      "geometry": {
        "type": "Point",
        "coordinates": [
          -87.004,
          12.702
        ]
      },
      "properties": {
        "name": "san_cristobal",
        "display_name": "San Cristobal",
        "lat_deg": 12.702,
        "lon_deg": -87.004,
        "alt_masl": 1745,
        "2005": 81,
        "2006": 279,
        "2007": 210,
        "2008": 103,
        "2009": 347,
        "2010": 233,
        "2011": 312,
        "2012": 330,
        "2013": 221,
        "2014": 326,
        "2015": 318,
        "2016": 157,
        "2017": 110,
        "2018": 115,
        "2019": 133,
        "2020": 111,
        "2021": 136,
        "2022": 158,
        "2023": 168,
        "2024": 111,
        "2025": 87
      }
    },
    {
      "type": "Feature",
      "geometry": {
        "type": "Point",
        "coordinates": [
          124.053,
          12.768
        ]
      },
      "properties": {
        "name": "bulusan",
        "display_name": "Bulusan",
        "lat_deg": 12.768,
        "lon_deg": 124.053,
        "alt_masl": 1500,
        "2005": 15,
        "2006": 292,
        "2007": 159,
        "2008": 70,
        "2009": 124,
        "2010": 70,
        "2011": 30,
        "2012": 19,
        "2013": 13,
        "2014": 37,
        "2015": 27,
        "2016": 69,
        "2017": 33,
        "2018": 77,
        "2019": 61,
        "2020": 28,
        "2021": 19,
        "2022": 97,
        "2023": 48,
        "2024": 29,
        "2025": 38
      }
    },
    {
      "type": "Feature",
      "geometry": {
        "type": "Point",
        "coordinates": [
          123.685,
          13.257
        ]
      },
      "properties": {
        "name": "mayon",
        "display_name": "Mayon",
        "lat_deg": 13.257,
        "lon_deg": 123.685,
        "alt_masl": 2462,
        "2005": 53,
        "2006": 364,
        "2007": 214,
        "2008": 135,
        "2009": 292,
        "2010": 252,
        "2011": 160,
        "2012": 157,
        "2013": 103,
        "2014": 109,
        "2015": 108,
        "2016": 163,
        "2017": 123,
        "2018": 422,
        "2019": 221,
        "2020": 96,
        "2021": 109,
        "2022": 129,
        "2023": 276,
        "2024": 133,
        "2025": 95
      }
    },
    {
      "type": "Feature",
      "geometry": {
        "type": "Point",
        "coordinates": [
          -88.469,
          13.418
        ]
      },
      "properties": {
        "name": "usulutan",
        "display_name": "Usulutan",
        "lat_deg": 13.418,
        "lon_deg": -88.469,
        "alt_masl": 1449,
        "2005": 12,
        "2006": 0,
        "2007": 0,
        "2008": 0,
        "2009": 0,
        "2010": 0,
        "2011": 12,
        "2012": 1,
        "2013": 13,
        "2014": 107,
        "2015": 78,
        "2016": 85,
        "2017": 27,
        "2018": 11,
        "2019": 14,
        "2020": 18,
        "2021": 23,
        "2022": 32,
        "2023": 17,
        "2024": 10,
        "2025": 9
      }
    },
    {
      "type": "Feature",
      "geometry": {
        "type": "Point",
        "coordinates": [
          -88.272,
          13.432
        ]
      },
      "properties": {
        "name": "san_miguel",
        "display_name": "San Miguel",
        "lat_deg": 13.432,
        "lon_deg": -88.272,
        "alt_masl": 2130,
        "2005": null,
        "2006": null,
        "2007": null,
        "2008": null,
        "2009": null,
        "2010": null,
        "2011": null,
        "2012": null,
        "2013": 84,
        "2014": 35,
        "2015": null,
        "2016": null,
        "2017": null,
        "2018": 1,
        "2019": 4,
        "2020": null,
        "2021": null,
        "2022": null,
        "2023": null,
        "2024": null,
        "2025": null
      }
    },
    {
      "type": "Feature",
      "geometry": {
        "type": "Point",
        "coordinates": [
          40.67,
          13.6
        ]
      },
      "properties": {
        "name": "erta_ale",
        "display_name": "Erta Ale",
        "lat_deg": 13.6,
        "lon_deg": 40.67,
        "alt_masl": 613,
        "2005": 7,
        "2006": 15,
        "2007": 27,
        "2008": 19,
        "2009": 12,
        "2010": 18,
        "2011": 19,
        "2012": 20,
        "2013": 10,
        "2014": 16,
        "2015": 16,
        "2016": 20,
        "2017": 502,
        "2018": 178,
        "2019": 59,
        "2020": 11,
        "2021": 16,
        "2022": 20,
        "2023": 21,
        "2024": 27,
        "2025": 163
      }
    },
    {
      "type": "Feature",
      "geometry": {
        "type": "Point",
        "coordinates": [
          -89.63,
          13.853
        ]
      },
      "properties": {
        "name": "santa_ana",
        "display_name": "Santa Ana",
        "lat_deg": 13.853,
        "lon_deg": -89.63,
        "alt_masl": 2381,
        "2005": 209,
        "2006": 47,
        "2007": 8,
        "2008": 18,
        "2009": 44,
        "2010": 0,
        "2011": 0,
        "2012": 14,
        "2013": 14,
        "2014": 0,
        "2015": 19,
        "2016": 35,
        "2017": 49,
        "2018": 41,
        "2019": 65,
        "2020": 27,
        "2021": 35,
        "2022": 52,
        "2023": 24,
        "2024": 21,
        "2025": 29
      }
    },
    {
      "type": "Feature",
      "geometry": {
        "type": "Point",
        "coordinates": [
          120.993,
          14.002
        ]
      },
      "properties": {
        "name": "taai",
        "display_name": "Taai",
        "lat_deg": 14.002,
        "lon_deg": 120.993,
        "alt_masl": 250,
        "2005": 54,
        "2006": 0,
        "2007": 24,
        "2008": 45,
        "2009": 16,
        "2010": 19,
        "2011": 0,
        "2012": 11,
        "2013": 11,
        "2014": 39,
        "2015": 51,
        "2016": 29,
        "2017": 48,
        "2018": 34,
        "2019": 23,
        "2020": 47,
        "2021": 927,
        "2022": 879,
        "2023": 948,
        "2024": 1155,
        "2025": 265
      }
    },
    {
      "type": "Feature",
      "geometry": {
        "type": "Point",
        "coordinates": [
          -90.88,
          14.473
        ]
      },
      "properties": {
        "name": "fuego",
        "display_name": "Fuego",
        "lat_deg": 14.473,
        "lon_deg": -90.88,
        "alt_masl": 3763,
        "2005": 103,
        "2006": 97,
        "2007": 96,
        "2008": 61,
        "2009": 85,
        "2010": 84,
        "2011": 66,
        "2012": 87,
        "2013": 98,
        "2014": 104,
        "2015": 112,
        "2016": 167,
        "2017": 177,
        "2018": 175,
        "2019": 119,
        "2020": 128,
        "2021": 177,
        "2022": 159,
        "2023": 132,
        "2024": 104,
        "2025": 118
      }
    },
    {
      "type": "Feature",
      "geometry": {
        "type": "Point",
        "coordinates": [
          120.47,
          14.52
        ]
      },
      "properties": {
        "name": "mariveles",
        "display_name": "Mariveles",
        "lat_deg": 14.52,
        "lon_deg": 120.47,
        "alt_masl": 1388,
        "2005": 24,
        "2006": 37,
        "2007": 13,
        "2008": 21,
        "2009": 19,
        "2010": 30,
        "2011": 22,
        "2012": 24,
        "2013": 11,
        "2014": 32,
        "2015": 35,
        "2016": 41,
        "2017": 40,
        "2018": 38,
        "2019": 28,
        "2020": 17,
        "2021": 32,
        "2022": 9,
        "2023": 52,
        "2024": 40,
        "2025": 13
      }
    },
    {
      "type": "Feature",
      "geometry": {
        "type": "Point",
        "coordinates": [
          -91.552,
          14.756
        ]
      },
      "properties": {
        "name": "santa_maria",
        "display_name": "Santa Maria",
        "lat_deg": 14.756,
        "lon_deg": -91.552,
        "alt_masl": 3772,
        "2005": 100,
        "2006": 92,
        "2007": 94,
        "2008": 61,
        "2009": 70,
        "2010": 93,
        "2011": 114,
        "2012": 153,
        "2013": 59,
        "2014": 84,
        "2015": 78,
        "2016": 58,
        "2017": 94,
        "2018": 50,
        "2019": 33,
        "2020": 31,
        "2021": 51,
        "2022": 154,
        "2023": 132,
        "2024": 100,
        "2025": 108
      }
    },
    {
      "type": "Feature",
      "geometry": {
        "type": "Point",
        "coordinates": [
          41.83,
          15.55
        ]
      },
      "properties": {
        "name": "jebel_at_tair",
        "display_name": "Jebel at Tair",
        "lat_deg": 15.55,
        "lon_deg": 41.83,
        "alt_masl": 244,
        "2005": 0,
        "2006": 0,
        "2007": 348,
        "2008": 10,
        "2009": 0,
        "2010": 15,
        "2011": 30,
        "2012": 0,
        "2013": 79,
        "2014": 16,
        "2015": 0,
        "2016": 0,
        "2017": 0,
        "2018": 1,
        "2019": 0,
        "2020": 1,
        "2021": 1,
        "2022": 0,
        "2023": 0,
        "2024": 0,
        "2025": 1
      }
    },
    {
      "type": "Feature",
      "geometry": {
        "type": "Point",
        "coordinates": [
          145.67,
          16.35
        ]
      },
      "properties": {
        "name": "anatahan",
        "display_name": "Anatahan",
        "lat_deg": 16.35,
        "lon_deg": 145.67,
        "alt_masl": 320,
        "2005": 1337,
        "2006": 1589,
        "2007": 1225,
        "2008": 990,
        "2009": 17,
        "2010": 0,
        "2011": 0,
        "2012": 6,
        "2013": 0,
        "2014": 2,
        "2015": 0,
        "2016": 0,
        "2017": 11,
        "2018": 2,
        "2019": 7,
        "2020": 6,
        "2021": 7,
        "2022": 2,
        "2023": 1,
        "2024": 1,
        "2025": 8
      }
    },
    {
      "type": "Feature",
      "geometry": {
        "type": "Point",
        "coordinates": [
          -62.18,
          16.72
        ]
      },
      "properties": {
        "name": "soufriere_hills",
        "display_name": "Soufriere Hills",
        "lat_deg": 16.72,
        "lon_deg": -62.18,
        "alt_masl": 870,
        "2005": 562,
        "2006": 987,
        "2007": 524,
        "2008": 581,
        "2009": 737,
        "2010": 495,
        "2011": 310,
        "2012": 214,
        "2013": 147,
        "2014": 108,
        "2015": 122,
        "2016": 76,
        "2017": 60,
        "2018": 67,
        "2019": 66,
        "2020": 72,
        "2021": 52,
        "2022": 61,
        "2023": 60,
        "2024": 54,
        "2025": 46
      }
    },
    {
      "type": "Feature",
      "geometry": {
        "type": "Point",
        "coordinates": [
          145.787,
          18.138
        ]
      },
      "properties": {
        "name": "pagan",
        "display_name": "Pagan",
        "lat_deg": 18.138,
        "lon_deg": 145.787,
        "alt_masl": 570,
        "2005": 49,
        "2006": 77,
        "2007": 55,
        "2008": 96,
        "2009": 85,
        "2010": 220,
        "2011": 286,
        "2012": 587,
        "2013": 414,
        "2014": 301,
        "2015": 32,
        "2016": 17,
        "2017": 4,
        "2018": 7,
        "2019": 8,
        "2020": 7,
        "2021": 64,
        "2022": 52,
        "2023": 69,
        "2024": 48,
        "2025": 23
      }
    },
    {
      "type": "Feature",
      "geometry": {
        "type": "Point",
        "coordinates": [
          -98.622,
          19.023
        ]
      },
      "properties": {
        "name": "popocatepetl",
        "display_name": "Popocatepetl",
        "lat_deg": 19.023,
        "lon_deg": -98.622,
        "alt_masl": 5100,
        "2005": 266,
        "2006": 279,
        "2007": 566,
        "2008": 529,
        "2009": 579,
        "2010": 927,
        "2011": 813,
        "2012": 787,
        "2013": 846,
        "2014": 898,
        "2015": 1000,
        "2016": 1125,
        "2017": 450,
        "2018": 442,
        "2019": 362,
        "2020": 276,
        "2021": 305,
        "2022": 353,
        "2023": 633,
        "2024": 581,
        "2025": 512
      }
    },
    {
      "type": "Feature",
      "geometry": {
        "type": "Point",
        "coordinates": [
          -155.29,
          19.42
        ]
      },
      "properties": {
        "name": "kilauea",
        "display_name": "Kilauea",
        "lat_deg": 19.42,
        "lon_deg": -155.29,
        "alt_masl": 1222,
        "2005": 779,
        "2006": 630,
        "2007": 589,
        "2008": 2483,
        "2009": 1799,
        "2010": 2260,
        "2011": 1102,
        "2012": 1471,
        "2013": 1472,
        "2014": 1147,
        "2015": 1312,
        "2016": 1549,
        "2017": 1550,
        "2018": 683,
        "2019": 12,
        "2020": 92,
        "2021": 294,
        "2022": 412,
        "2023": 234,
        "2024": 59,
        "2025": 438
      }
    },
    {
      "type": "Feature",
      "geometry": {
        "type": "Point",
        "coordinates": [
          -103.617,
          19.512
        ]
      },
      "properties": {
        "name": "fuego_de_colima",
        "display_name": "Fuego de Colima",
        "lat_deg": 19.512,
        "lon_deg": -103.617,
        "alt_masl": 3850,
        "2005": null,
        "2006": null,
        "2007": null,
        "2008": null,
        "2009": null,
        "2010": null,
        "2011": null,
        "2012": 6,
        "2013": 76,
        "2014": 73,
        "2015": 81,
        "2016": 33,
        "2017": null,
        "2018": null,
        "2019": null,
        "2020": null,
        "2021": null,
        "2022": null,
        "2023": null,
        "2024": null,
        "2025": null
      }
    },
    {
      "type": "Feature",
      "geometry": {
        "type": "Point",
        "coordinates": [
          140.874,
          27.25
        ]
      },
      "properties": {
        "name": "nishinoshima",
        "display_name": "Nishinoshima",
        "lat_deg": 27.25,
        "lon_deg": 140.874,
        "alt_masl": 38,
        "2005": 4,
        "2006": 0,
        "2007": 0,
        "2008": 1,
        "2009": 0,
        "2010": 0,
        "2011": 25,
        "2012": 7,
        "2013": 10,
        "2014": 335,
        "2015": 228,
        "2016": 8,
        "2017": 90,
        "2018": 10,
        "2019": 40,
        "2020": 616,
        "2021": 121,
        "2022": 599,
        "2023": 939,
        "2024": 44,
        "2025": 1
      }
    },
    {
      "type": "Feature",
      "geometry": {
        "type": "Point",
        "coordinates": [
          -17.86,
          28.615
        ]
      },
      "properties": {
        "name": "la_palma",
        "display_name": "La Palma",
        "lat_deg": 28.615,
        "lon_deg": -17.86,
        "alt_masl": 1200,
        "2005": 10,
        "2006": 0,
        "2007": 0,
        "2008": 3,
        "2009": 0,
        "2010": 0,
        "2011": 1,
        "2012": 1,
        "2013": 7,
        "2014": 2,
        "2015": 2,
        "2016": 3,
        "2017": 2,
        "2018": 0,
        "2019": 3,
        "2020": 2,
        "2021": 84,
        "2022": 8,
        "2023": 4,
        "2024": 1,
        "2025": 4
      }
    },
    {
      "type": "Feature",
      "geometry": {
        "type": "Point",
        "coordinates": [
          129.716,
          29.635
        ]
      },
      "properties": {
        "name": "suwanose-jima",
        "display_name": "Suwanose-jima",
        "lat_deg": 29.635,
        "lon_deg": 129.716,
        "alt_masl": 560,
        "2005": 235,
        "2006": 320,
        "2007": 161,
        "2008": 362,
        "2009": 250,
        "2010": 306,
        "2011": 242,
        "2012": 196,
        "2013": 500,
        "2014": 270,
        "2015": 298,
        "2016": 389,
        "2017": 337,
        "2018": 203,
        "2019": 273,
        "2020": 374,
        "2021": 243,
        "2022": 286,
        "2023": 147,
        "2024": 341,
        "2025": 401
      }
    },
    {
      "type": "Feature",
      "geometry": {
        "type": "Point",
        "coordinates": [
          130.308,
          30.789
        ]
      },
      "properties": {
        "name": "kikai",
        "display_name": "Kikai",
        "lat_deg": 30.789,
        "lon_deg": 130.308,
        "alt_masl": 614,
        "2005": 166,
        "2006": 201,
        "2007": 229,
        "2008": 215,
        "2009": 134,
        "2010": 142,
        "2011": 208,
        "2012": 257,
        "2013": 227,
        "2014": 272,
        "2015": 252,
        "2016": 143,
        "2017": 204,
        "2018": 324,
        "2019": 219,
        "2020": 214,
        "2021": 155,
        "2022": 179,
        "2023": 197,
        "2024": 215,
        "2025": 233
      }
    },
    {
      "type": "Feature",
      "geometry": {
        "type": "Point",
        "coordinates": [
          130.657,
          31.585
        ]
      },
      "properties": {
        "name": "sakura-jima",
        "display_name": "Sakura-jima",
        "lat_deg": 31.585,
        "lon_deg": 130.657,
        "alt_masl": 639,
        "2005": 86,
        "2006": 104,
        "2007": 114,
        "2008": 130,
        "2009": 296,
        "2010": 328,
        "2011": 540,
        "2012": 528,
        "2013": 452,
        "2014": 409,
        "2015": 161,
        "2016": 1,
        "2017": 146,
        "2018": 419,
        "2019": 401,
        "2020": 334,
        "2021": 232,
        "2022": 303,
        "2023": 486,
        "2024": 375,
        "2025": 458
      }
    },
    {
      "type": "Feature",
      "geometry": {
        "type": "Point",
        "coordinates": [
          131.106,
          32.881
        ]
      },
      "properties": {
        "name": "aso",
        "display_name": "Aso",
        "lat_deg": 32.881,
        "lon_deg": 131.106,
        "alt_masl": 1181,
        "2005": 175,
        "2006": 75,
        "2007": 68,
        "2008": 123,
        "2009": 151,
        "2010": 114,
        "2011": 101,
        "2012": 153,
        "2013": 146,
        "2014": 369,
        "2015": 319,
        "2016": 419,
        "2017": 202,
        "2018": 168,
        "2019": 506,
        "2020": 190,
        "2021": 147,
        "2022": 161,
        "2023": 52,
        "2024": 149,
        "2025": 78
      }
    },
    {
      "type": "Feature",
      "geometry": {
        "type": "Point",
        "coordinates": [
          139.529,
          34.079
        ]
      },
      "properties": {
        "name": "miyake-jima",
        "display_name": "Miyake-jima",
        "lat_deg": 34.079,
        "lon_deg": 139.529,
        "alt_masl": 560,
        "2005": 1189,
        "2006": 644,
        "2007": 538,
        "2008": 520,
        "2009": 371,
        "2010": 272,
        "2011": 318,
        "2012": 185,
        "2013": 72,
        "2014": 73,
        "2015": 37,
        "2016": 0,
        "2017": 0,
        "2018": 0,
        "2019": 0,
        "2020": 0,
        "2021": 0,
        "2022": 0,
        "2023": 0,
        "2024": 0,
        "2025": 0
      }
    },
    {
      "type": "Feature",
      "geometry": {
        "type": "Point",
        "coordinates": [
          138.526,
          36.403
        ]
      },
      "properties": {
        "name": "asama",
        "display_name": "Asama",
        "lat_deg": 36.403,
        "lon_deg": 138.526,
        "alt_masl": 2126,
        "2005": 423,
        "2006": 55,
        "2007": 7,
        "2008": 226,
        "2009": 304,
        "2010": 58,
        "2011": 69,
        "2012": 42,
        "2013": 42,
        "2014": 22,
        "2015": 255,
        "2016": 72,
        "2017": 274,
        "2018": 39,
        "2019": 23,
        "2020": 163,
        "2021": 50,
        "2022": 29,
        "2023": 170,
        "2024": 121,
        "2025": 55
      }
    },
    {
      "type": "Feature",
      "geometry": {
        "type": "Point",
        "coordinates": [
          15.004,
          37.734
        ]
      },
      "properties": {
        "name": "mt._etna",
        "display_name": "Mt. Etna",
        "lat_deg": 37.734,
        "lon_deg": 15.004,
        "alt_masl": 2711,
        "2005": 575,
        "2006": 1043,
        "2007": 579,
        "2008": 754,
        "2009": 876,
        "2010": 1470,
        "2011": 858,
        "2012": 515,
        "2013": 498,
        "2014": 831,
        "2015": 574,
        "2016": 791,
        "2017": 801,
        "2018": 808,
        "2019": 1040,
        "2020": 712,
        "2021": 625,
        "2022": 843,
        "2023": 437,
        "2024": 338,
        "2025": 592
      }
    },
    {
      "type": "Feature",
      "geometry": {
        "type": "Point",
        "coordinates": [
          14.962,
          38.405
        ]
      },
      "properties": {
        "name": "vulcano",
        "display_name": "Vulcano",
        "lat_deg": 38.405,
        "lon_deg": 14.962,
        "alt_masl": 250,
        "2005": null,
        "2006": null,
        "2007": null,
        "2008": null,
        "2009": 2,
        "2010": 0,
        "2011": null,
        "2012": 0,
        "2013": null,
        "2014": null,
        "2015": null,
        "2016": 1,
        "2017": 1,
        "2018": 0,
        "2019": null,
        "2020": null,
        "2021": null,
        "2022": null,
        "2023": null,
        "2024": null,
        "2025": null
      }
    },
    {
      "type": "Feature",
      "geometry": {
        "type": "Point",
        "coordinates": [
          15.215,
          38.788
        ]
      },
      "properties": {
        "name": "stromboli",
        "display_name": "Stromboli",
        "lat_deg": 38.788,
        "lon_deg": 15.215,
        "alt_masl": 870,
        "2005": 19,
        "2006": 43,
        "2007": 81,
        "2008": 49,
        "2009": 46,
        "2010": 24,
        "2011": 75,
        "2012": 49,
        "2013": 59,
        "2014": 31,
        "2015": 45,
        "2016": 2,
        "2017": 39,
        "2018": 32,
        "2019": 57,
        "2020": 44,
        "2021": 28,
        "2022": 24,
        "2023": 30,
        "2024": 55,
        "2025": 31
      }
    },
    {
      "type": "Feature",
      "geometry": {
        "type": "Point",
        "coordinates": [
          142.69,
          43.416
        ]
      },
      "properties": {
        "name": "tokachi",
        "display_name": "Tokachi",
        "lat_deg": 43.416,
        "lon_deg": 142.69,
        "alt_masl": 2077,
        "2005": 86,
        "2006": 40,
        "2007": 0,
        "2008": 57,
        "2009": 35,
        "2010": 28,
        "2011": 54,
        "2012": 24,
        "2013": 32,
        "2014": 38,
        "2015": 86,
        "2016": 81,
        "2017": 193,
        "2018": 81,
        "2019": 121,
        "2020": 79,
        "2021": 161,
        "2022": 170,
        "2023": 95,
        "2024": 78,
        "2025": 76
      }
    },
    {
      "type": "Feature",
      "geometry": {
        "type": "Point",
        "coordinates": [
          148.843,
          45.387
        ]
      },
      "properties": {
        "name": "medvezhia",
        "display_name": "Medvezhia",
        "lat_deg": 45.387,
        "lon_deg": 148.843,
        "alt_masl": 1125,
        "2005": 69,
        "2006": 27,
        "2007": 84,
        "2008": 66,
        "2009": 76,
        "2010": 40,
        "2011": 48,
        "2012": 51,
        "2013": 84,
        "2014": 65,
        "2015": 56,
        "2016": 69,
        "2017": 153,
        "2018": 55,
        "2019": 51,
        "2020": 74,
        "2021": 90,
        "2022": 58,
        "2023": 64,
        "2024": 23,
        "2025": 90
      }
    },
    {
      "type": "Feature",
      "geometry": {
        "type": "Point",
        "coordinates": [
          152.48,
          47.34
        ]
      },
      "properties": {
        "name": "ketoy_island",
        "display_name": "Ketoy island",
        "lat_deg": 47.34,
        "lon_deg": 152.48,
        "alt_masl": 870,
        "2005": 46,
        "2006": 0,
        "2007": 28,
        "2008": 51,
        "2009": 169,
        "2010": 32,
        "2011": 0,
        "2012": 78,
        "2013": 43,
        "2014": 55,
        "2015": 40,
        "2016": 31,
        "2017": 46,
        "2018": 38,
        "2019": 24,
        "2020": 26,
        "2021": 20,
        "2022": 30,
        "2023": 2,
        "2024": 42,
        "2025": 28
      }
    },
    {
      "type": "Feature",
      "geometry": {
        "type": "Point",
        "coordinates": [
          153.21,
          48.08
        ]
      },
      "properties": {
        "name": "sarychev",
        "display_name": "Sarychev",
        "lat_deg": 48.08,
        "lon_deg": 153.21,
        "alt_masl": 1200,
        "2005": 51,
        "2006": 7,
        "2007": 57,
        "2008": 83,
        "2009": 310,
        "2010": 215,
        "2011": 43,
        "2012": 53,
        "2013": 46,
        "2014": 33,
        "2015": 8,
        "2016": 0,
        "2017": 36,
        "2018": 74,
        "2019": 12,
        "2020": 27,
        "2021": 8,
        "2022": 28,
        "2023": 12,
        "2024": 13,
        "2025": 19
      }
    },
    {
      "type": "Feature",
      "geometry": {
        "type": "Point",
        "coordinates": [
          155.458,
          50.325
        ]
      },
      "properties": {
        "name": "chikurachki",
        "display_name": "Chikurachki",
        "lat_deg": 50.325,
        "lon_deg": 155.458,
        "alt_masl": 1816,
        "2005": 202,
        "2006": 26,
        "2007": 670,
        "2008": 313,
        "2009": 154,
        "2010": 183,
        "2011": 141,
        "2012": 102,
        "2013": 153,
        "2014": 72,
        "2015": 269,
        "2016": 338,
        "2017": 147,
        "2018": 218,
        "2019": 228,
        "2020": 196,
        "2021": 222,
        "2022": 228,
        "2023": 135,
        "2024": 44,
        "2025": 6
      }
    },
    {
      "type": "Feature",
      "geometry": {
        "type": "Point",
        "coordinates": [
          156.017,
          50.689
        ]
      },
      "properties": {
        "name": "ebeko",
        "display_name": "Ebeko",
        "lat_deg": 50.689,
        "lon_deg": 156.017,
        "alt_masl": 1030,
        "2005": 131,
        "2006": 82,
        "2007": 136,
        "2008": 115,
        "2009": 130,
        "2010": 109,
        "2011": 110,
        "2012": 64,
        "2013": 81,
        "2014": 16,
        "2015": 113,
        "2016": 203,
        "2017": 154,
        "2018": 184,
        "2019": 128,
        "2020": 109,
        "2021": 104,
        "2022": 144,
        "2023": 71,
        "2024": 18,
        "2025": 8
      }
    },
    {
      "type": "Feature",
      "geometry": {
        "type": "Point",
        "coordinates": [
          -178.794,
          51.79
        ]
      },
      "properties": {
        "name": "gareloi",
        "display_name": "Gareloi",
        "lat_deg": 51.79,
        "lon_deg": -178.794,
        "alt_masl": 1573,
        "2005": 3,
        "2006": 32,
        "2007": 61,
        "2008": 18,
        "2009": 8,
        "2010": 19,
        "2011": 41,
        "2012": 18,
        "2013": 39,
        "2014": 18,
        "2015": 19,
        "2016": 34,
        "2017": 47,
        "2018": 27,
        "2019": 8,
        "2020": 5,
        "2021": 26,
        "2022": 50,
        "2023": 3,
        "2024": 72,
        "2025": 41
      }
    },
    {
      "type": "Feature",
      "geometry": {
        "type": "Point",
        "coordinates": [
          -174.154,
          52.381
        ]
      },
      "properties": {
        "name": "korovin",
        "display_name": "Korovin",
        "lat_deg": 52.381,
        "lon_deg": -174.154,
        "alt_masl": 1533,
        "2005": 8,
        "2006": 108,
        "2007": 154,
        "2008": 0,
        "2009": 157,
        "2010": 0,
        "2011": 41,
        "2012": 0,
        "2013": 31,
        "2014": 121,
        "2015": 34,
        "2016": 110,
        "2017": 0,
        "2018": 10,
        "2019": 20,
        "2020": 40,
        "2021": 11,
        "2022": 28,
        "2023": 42,
        "2024": 32,
        "2025": 16
      }
    },
    {
      "type": "Feature",
      "geometry": {
        "type": "Point",
        "coordinates": [
          158.195,
          52.453
        ]
      },
      "properties": {
        "name": "mutnovsky",
        "display_name": "Mutnovsky",
        "lat_deg": 52.453,
        "lon_deg": 158.195,
        "alt_masl": 2322,
        "2005": 338,
        "2006": 173,
        "2007": 37,
        "2008": 197,
        "2009": 353,
        "2010": 872,
        "2011": 371,
        "2012": 180,
        "2013": 186,
        "2014": 120,
        "2015": 84,
        "2016": 2,
        "2017": 32,
        "2018": 191,
        "2019": 67,
        "2020": 118,
        "2021": 292,
        "2022": 254,
        "2023": 103,
        "2024": 164,
        "2025": 243
      }
    },
    {
      "type": "Feature",
      "geometry": {
        "type": "Point",
        "coordinates": [
          -169.77,
          52.83
        ]
      },
      "properties": {
        "name": "tana",
        "display_name": "Tana",
        "lat_deg": 52.83,
        "lon_deg": -169.77,
        "alt_masl": 1170,
        "2005": 140,
        "2006": 55,
        "2007": 59,
        "2008": 82,
        "2009": 0,
        "2010": 30,
        "2011": 105,
        "2012": 0,
        "2013": 128,
        "2014": 8,
        "2015": 91,
        "2016": 116,
        "2017": 42,
        "2018": 49,
        "2019": 46,
        "2020": 1,
        "2021": 48,
        "2022": 71,
        "2023": 43,
        "2024": 10,
        "2025": 31
      }
    },
    {
      "type": "Feature",
      "geometry": {
        "type": "Point",
        "coordinates": [
          158.831,
          53.254
        ]
      },
      "properties": {
        "name": "avachinsky",
        "display_name": "Avachinsky",
        "lat_deg": 53.254,
        "lon_deg": 158.831,
        "alt_masl": 2741,
        "2005": 119,
        "2006": 122,
        "2007": 70,
        "2008": 138,
        "2009": 538,
        "2010": 183,
        "2011": 208,
        "2012": 69,
        "2013": 105,
        "2014": 565,
        "2015": 144,
        "2016": 0,
        "2017": 134,
        "2018": 53,
        "2019": 64,
        "2020": 75,
        "2021": 69,
        "2022": 45,
        "2023": 47,
        "2024": 59,
        "2025": 45
      }
    },
    {
      "type": "Feature",
      "geometry": {
        "type": "Point",
        "coordinates": [
          -166.932,
          53.884
        ]
      },
      "properties": {
        "name": "makushin",
        "display_name": "Makushin",
        "lat_deg": 53.884,
        "lon_deg": -166.932,
        "alt_masl": 2036,
        "2005": 0,
        "2006": 35,
        "2007": 5,
        "2008": 89,
        "2009": 0,
        "2010": 11,
        "2011": 14,
        "2012": 5,
        "2013": 32,
        "2014": 10,
        "2015": 0,
        "2016": 29,
        "2017": 67,
        "2018": 40,
        "2019": 33,
        "2020": 20,
        "2021": 9,
        "2022": 16,
        "2023": 26,
        "2024": 31,
        "2025": 27
      }
    },
    {
      "type": "Feature",
      "geometry": {
        "type": "Point",
        "coordinates": [
          159.45,
          54.05
        ]
      },
      "properties": {
        "name": "karymsky",
        "display_name": "Karymsky",
        "lat_deg": 54.05,
        "lon_deg": 159.45,
        "alt_masl": 1536,
        "2005": 209,
        "2006": 258,
        "2007": 188,
        "2008": 423,
        "2009": 117,
        "2010": 145,
        "2011": 340,
        "2012": 275,
        "2013": 311,
        "2014": 407,
        "2015": 235,
        "2016": 59,
        "2017": 170,
        "2018": 100,
        "2019": 124,
        "2020": 130,
        "2021": 287,
        "2022": 62,
        "2023": 67,
        "2024": 111,
        "2025": 34
      }
    },
    {
      "type": "Feature",
      "geometry": {
        "type": "Point",
        "coordinates": [
          -163.97,
          54.756
        ]
      },
      "properties": {
        "name": "shishaldin",
        "display_name": "Shishaldin",
        "lat_deg": 54.756,
        "lon_deg": -163.97,
        "alt_masl": 2857,
        "2005": 5,
        "2006": 178,
        "2007": 89,
        "2008": 110,
        "2009": 202,
        "2010": 17,
        "2011": 4,
        "2012": 3,
        "2013": 178,
        "2014": 287,
        "2015": 230,
        "2016": 46,
        "2017": 85,
        "2018": 28,
        "2019": 11,
        "2020": 25,
        "2021": 3,
        "2022": 1,
        "2023": 124,
        "2024": 68,
        "2025": 165
      }
    },
    {
      "type": "Feature",
      "geometry": {
        "type": "Point",
        "coordinates": [
          160.36,
          55.119
        ]
      },
      "properties": {
        "name": "kizimenk",
        "display_name": "Kizimenk",
        "lat_deg": 55.119,
        "lon_deg": 160.36,
        "alt_masl": 2376,
        "2005": 0,
        "2006": 0,
        "2007": 23,
        "2008": 8,
        "2009": 0,
        "2010": 82,
        "2011": 1642,
        "2012": 413,
        "2013": 378,
        "2014": 116,
        "2015": 46,
        "2016": 123,
        "2017": 111,
        "2018": 11,
        "2019": 14,
        "2020": 45,
        "2021": 1,
        "2022": 38,
        "2023": 43,
        "2024": 75,
        "2025": 20
      }
    },
    {
      "type": "Feature",
      "geometry": {
        "type": "Point",
        "coordinates": [
          -161.89,
          55.414
        ]
      },
      "properties": {
        "name": "pavlof",
        "display_name": "Pavlof",
        "lat_deg": 55.414,
        "lon_deg": -161.89,
        "alt_masl": 2490,
        "2005": 20,
        "2006": 9,
        "2007": 52,
        "2008": 0,
        "2009": 76,
        "2010": 41,
        "2011": 0,
        "2012": 36,
        "2013": 79,
        "2014": 12,
        "2015": 5,
        "2016": 212,
        "2017": 148,
        "2018": 99,
        "2019": 43,
        "2020": 19,
        "2021": 34,
        "2022": 28,
        "2023": 0,
        "2024": 1,
        "2025": 0
      }
    },
    {
      "type": "Feature",
      "geometry": {
        "type": "Point",
        "coordinates": [
          160.638,
          56.057
        ]
      },
      "properties": {
        "name": "kliuchevskoi",
        "display_name": "Kliuchevskoi",
        "lat_deg": 56.057,
        "lon_deg": 160.638,
        "alt_masl": 4835,
        "2005": 112,
        "2006": 83,
        "2007": 428,
        "2008": 45,
        "2009": 64,
        "2010": 606,
        "2011": 240,
        "2012": 185,
        "2013": 402,
        "2014": 73,
        "2015": 190,
        "2016": 548,
        "2017": 425,
        "2018": 78,
        "2019": 247,
        "2020": 240,
        "2021": 50,
        "2022": 184,
        "2023": 266,
        "2024": 267,
        "2025": 316
      }
    },
    {
      "type": "Feature",
      "geometry": {
        "type": "Point",
        "coordinates": [
          -159.38,
          56.17
        ]
      },
      "properties": {
        "name": "veniaminof",
        "display_name": "Veniaminof",
        "lat_deg": 56.17,
        "lon_deg": -159.38,
        "alt_masl": 2507,
        "2005": 22,
        "2006": 121,
        "2007": 115,
        "2008": 163,
        "2009": 2,
        "2010": 62,
        "2011": 123,
        "2012": 0,
        "2013": 229,
        "2014": 39,
        "2015": 3,
        "2016": 19,
        "2017": 0,
        "2018": 160,
        "2019": 4,
        "2020": 11,
        "2021": 24,
        "2022": 12,
        "2023": 2,
        "2024": 5,
        "2025": 2
      }
    },
    {
      "type": "Feature",
      "geometry": {
        "type": "Point",
        "coordinates": [
          161.343,
          56.644
        ]
      },
      "properties": {
        "name": "shiveluch",
        "display_name": "Shiveluch",
        "lat_deg": 56.644,
        "lon_deg": 161.343,
        "alt_masl": 3283,
        "2005": 74,
        "2006": 43,
        "2007": 194,
        "2008": 88,
        "2009": 104,
        "2010": 287,
        "2011": 156,
        "2012": 134,
        "2013": 180,
        "2014": 202,
        "2015": 122,
        "2016": 304,
        "2017": 260,
        "2018": 184,
        "2019": 178,
        "2020": 149,
        "2021": 100,
        "2022": 242,
        "2023": 341,
        "2024": 232,
        "2025": 349
      }
    },
    {
      "type": "Feature",
      "geometry": {
        "type": "Point",
        "coordinates": [
          -156.99,
          57.135
        ]
      },
      "properties": {
        "name": "chiginagak",
        "display_name": "Chiginagak",
        "lat_deg": 57.135,
        "lon_deg": -156.99,
        "alt_masl": 2000,
        "2005": 62,
        "2006": 130,
        "2007": 77,
        "2008": 47,
        "2009": 63,
        "2010": 16,
        "2011": 4,
        "2012": 13,
        "2013": 5,
        "2014": 42,
        "2015": 27,
        "2016": 16,
        "2017": 16,
        "2018": 3,
        "2019": 12,
        "2020": 32,
        "2021": 28,
        "2022": 12,
        "2023": 11,
        "2024": 12,
        "2025": 18
      }
    },
    {
      "type": "Feature",
      "geometry": {
        "type": "Point",
        "coordinates": [
          -153.453,
          59.345
        ]
      },
      "properties": {
        "name": "augustine",
        "display_name": "Augustine",
        "lat_deg": 59.345,
        "lon_deg": -153.453,
        "alt_masl": 1252,
        "2005": 0,
        "2006": 171,
        "2007": 14,
        "2008": 0,
        "2009": 2,
        "2010": 3,
        "2011": 0,
        "2012": 20,
        "2013": 1,
        "2014": 8,
        "2015": 25,
        "2016": 8,
        "2017": 0,
        "2018": 0,
        "2019": 3,
        "2020": 5,
        "2021": 5,
        "2022": 3,
        "2023": 13,
        "2024": 7,
        "2025": 4
      }
    },
    {
      "type": "Feature",
      "geometry": {
        "type": "Point",
        "coordinates": [
          -152.749,
          60.485
        ]
      },
      "properties": {
        "name": "redoubt",
        "display_name": "Redoubt",
        "lat_deg": 60.485,
        "lon_deg": -152.749,
        "alt_masl": 3108,
        "2005": 11,
        "2006": 0,
        "2007": 0,
        "2008": 0,
        "2009": 924,
        "2010": 34,
        "2011": 8,
        "2012": 17,
        "2013": 0,
        "2014": 0,
        "2015": 0,
        "2016": 8,
        "2017": 0,
        "2018": 6,
        "2019": 6,
        "2020": 7,
        "2021": 16,
        "2022": 8,
        "2023": 4,
        "2024": 6,
        "2025": 2
      }
    },
    {
      "type": "Feature",
      "geometry": {
        "type": "Point",
        "coordinates": [
          -152.251,
          61.296
        ]
      },
      "properties": {
        "name": "spurr",
        "display_name": "Spurr",
        "lat_deg": 61.296,
        "lon_deg": -152.251,
        "alt_masl": 3374,
        "2005": 24,
        "2006": 44,
        "2007": 11,
        "2008": 0,
        "2009": 85,
        "2010": 5,
        "2011": 7,
        "2012": 0,
        "2013": 3,
        "2014": 2,
        "2015": 0,
        "2016": 2,
        "2017": 0,
        "2018": 3,
        "2019": 3,
        "2020": 2,
        "2021": 13,
        "2022": 0,
        "2023": 10,
        "2024": 3,
        "2025": 7
      }
    },
    {
      "type": "Feature",
      "geometry": {
        "type": "Point",
        "coordinates": [
          -22.27,
          63.89
        ]
      },
      "properties": {
        "name": "reykjanes_peninsula",
        "display_name": "Reykjanes Peninsula",
        "lat_deg": 63.89,
        "lon_deg": -22.27,
        "alt_masl": 300,
        "2005": 21,
        "2006": 29,
        "2007": 0,
        "2008": 32,
        "2009": 17,
        "2010": 0,
        "2011": 0,
        "2012": 1,
        "2013": 21,
        "2014": 44,
        "2015": 55,
        "2016": 0,
        "2017": 24,
        "2018": 8,
        "2019": 47,
        "2020": 33,
        "2021": 909,
        "2022": 116,
        "2023": 158,
        "2024": 388,
        "2025": 57
      }
    } 
  ]
}
